{
    "links": {
        "self": "http://www.neowsapp.com/rest/v1/neo/3392451?api_key=iIulBulltgU6a56xZRHN4H3l9WmuAYTsLGpBGhQ2"
    },
    "id": "3392451",
    "neo_reference_id": "3392451",
    "name": "(2007 VK8)",
    "designation": "2007 VK8",
    "nasa_jpl_url": "http://ssd.jpl.nasa.gov/sbdb.cgi?sstr=3392451",
    "absolute_magnitude_h": 23.1,
    "estimated_diameter": {
        "kilometers": {
            "estimated_diameter_min": 0.063760979,
            "estimated_diameter_max": 0.1425738833
        },
        "meters": {
            "estimated_diameter_min": 63.7609789875,
            "estimated_diameter_max": 142.5738833281
        },
        "miles": {
            "estimated_diameter_min": 0.0396192233,
            "estimated_diameter_max": 0.0885912765
        },
        "feet": {
            "estimated_diameter_min": 209.1895703015,
            "estimated_diameter_max": 467.7620993781
        }
    },
    "is_potentially_hazardous_asteroid": false,
    "close_approach_data": [
        {
            "close_approach_date": "1928-06-12",
            "close_approach_date_full": "1928-Jun-12 05:21",
            "epoch_date_close_approach": -1311359940000,
            "relative_velocity": {
                "kilometers_per_second": "29.3086155469",
                "kilometers_per_hour": "105511.0159687331",
                "miles_per_hour": "65560.4421167942"
            },
            "miss_distance": {
                "astronomical": "0.4624953879",
                "lunar": "179.9107058931",
                "kilometers": "69188324.914663773",
                "miles": "42991631.5535271474"
            },
            "orbiting_body": "Earth"
        },
        {
            "close_approach_date": "1981-05-22",
            "close_approach_date_full": "1981-May-22 21:56",
            "epoch_date_close_approach": 359416560000,
            "relative_velocity": {
                "kilometers_per_second": "17.0181208894",
                "kilometers_per_hour": "61265.2352017165",
                "miles_per_hour": "38067.8346174221"
            },
            "miss_distance": {
                "astronomical": "0.097865827",
                "lunar": "38.069806703",
                "kilometers": "14640519.26498849",
                "miles": "9097196.828641562"
            },
            "orbiting_body": "Venus"
        },
        {
            "close_approach_date": "2007-11-24",
            "close_approach_date_full": "2007-Nov-24 19:45",
            "epoch_date_close_approach": 1195933500000,
            "relative_velocity": {
                "kilometers_per_second": "14.3714729213",
                "kilometers_per_hour": "51737.3025165655",
                "miles_per_hour": "32147.5477775848"
            },
            "miss_distance": {
                "astronomical": "0.0730027162",
                "lunar": "28.3980566018",
                "kilometers": "10921050.847734494",
                "miles": "6786026.3245602572"
            },
            "orbiting_body": "Earth"
        }
    ],
    "orbital_data": {
        "orbit_id": "9",
        "orbit_determination_date": "2017-04-06 09:05:19",
        "first_observation_date": "2007-11-05",
        "last_observation_date": "2007-11-16",
        "data_arc_in_days": 11,
        "observations_used": 24,
        "orbit_uncertainty": "9",
        "minimum_orbit_intersection": ".0574207",
        "jupiter_tisserand_invariant": "4.581",
        "epoch_osculation": "2454411.5",
        "eccentricity": ".5387524553733555",
        "semi_major_axis": "1.40344992391939",
        "inclination": "3.333392368360562",
        "ascending_node_longitude": "147.8859628095754",
        "orbital_period": "607.2867544859095",
        "perihelion_distance": ".6473378314142698",
        "perihelion_argument": ".1645799725132221",
        "aphelion_distance": "2.159562016424511",
        "perihelion_time": "2454480.933127794439",
        "mean_anomaly": "318.8399947448912",
        "mean_motion": ".5928006783298826",
        "equinox": "J2000",
        "orbit_class": {
            "orbit_class_type": "APO",
            "orbit_class_description": "Near-Earth asteroid orbits which cross the Earth’s orbit similar to that of 1862 Apollo",
            "orbit_class_range": "a (semi-major axis) > 1.0 AU; q (perihelion) < 1.017 AU"
        }
    },
    "is_sentry_object": false
}